[
    {
        "Altitude(m)": 604234.6259032685,
        "Argument of Periapsis(deg)": 0.0,
        "Eccentricity": 0.0,
        "Inclination(deg)": 60.0,
        "Latitude(deg)": 14.117330847594468,
        "Longitude(deg)": 91.72732728080929,
        "Mean Anomaly(deg)": 163.6364,
        "RAAN(deg)": 20.0,
        "Satellite Name": "Test1 98",
        "Satellite Number": 98,
        "Semi-Major Axis(m)": 6980739.136638005,
        "Time(s)": 0
    },
    {
        "Altitude(m)": 604223.4538893384,
        "Argument of Periapsis(deg)": 0.00010418945913296404,
        "Eccentricity": 0.0,
        "Inclination(deg)": 60.0,
        "Latitude(deg)": 13.582467221156008,
        "Longitude(deg)": 92.01423657266908,
        "Mean Anomaly(deg)": 164.25650614546183,
        "RAAN(deg)": 19.99957995086026,
        "Satellite Name": "Test1 98",
        "Satellite Number": 98,
        "Semi-Major Axis(m)": 6980739.136638005,
        "Time(s)": 10
    }
]